QIANFAN-89              
1 63175U 25046S   25361.17119855  .00000221  00000+0  32356-3 0  9999
2 63175  88.9776 318.5446 0018514  83.0878 277.2379 13.50980892 49356
QIANFAN-90              
1 63176U 25046T   25361.27399665  .00000196  00000+0  28422-3 0  9990
2 63176  88.9777 318.5063 0015452  81.1786 279.1114 13.50981073 49381
QIANFAN-91              
1 66033U 25233A   25360.97705970  .00000034  00000+0  27375-4 0  9997
2 66033  88.9987  60.6458 0015028  12.8574 347.2964 13.62305790  9922
QIANFAN-92              
1 66034U 25233B   25361.03285392  .00000017  00000+0  67198-5 0  9996
2 66034  88.9885  60.6504 0014123   9.8971 350.2461 13.59542921  9936
QIANFAN-93              
1 66035U 25233C   25360.98340005  .00000035  00000+0  29939-4 0  9993
2 66035  88.9953  60.6673 0014622   5.9672 354.1657 13.61342265  9920
QIANFAN-94              
1 66036U 25233D   25361.26595382  .00000184  00000+0  20021-3 0  9993
2 66036  88.9951  60.6176 0015054   0.6303 359.4874 13.68546201  9977
QIANFAN-95              
1 66037U 25233E   25361.21955520  .00000316  00000+0  18087-3 0  9999
2 66037  88.9949  60.4270 0014078   3.8493 356.2796 14.07039332 10075
QIANFAN-96              
1 66038U 25233F   25361.00916232  .00000037  00000+0  32537-4 0  9991
2 66038  88.9910  60.6842 0017653   8.0871 352.0567 13.59970299  9924
